{
    "links": {
        "self": "http://www.neowsapp.com/rest/v1/neo/3675179?api_key=iIulBulltgU6a56xZRHN4H3l9WmuAYTsLGpBGhQ2"
    },
    "id": "3675179",
    "neo_reference_id": "3675179",
    "name": "(2014 MW67)",
    "designation": "2014 MW67",
    "nasa_jpl_url": "http://ssd.jpl.nasa.gov/sbdb.cgi?sstr=3675179",
    "absolute_magnitude_h": 24.553,
    "estimated_diameter": {
        "kilometers": {
            "estimated_diameter_min": 0.0326553977,
            "estimated_diameter_max": 0.073019689
        },
        "meters": {
            "estimated_diameter_min": 32.6553976503,
            "estimated_diameter_max": 73.0196889784
        },
        "miles": {
            "estimated_diameter_min": 0.0202911171,
            "estimated_diameter_max": 0.0453723172
        },
        "feet": {
            "estimated_diameter_min": 107.1371348271,
            "estimated_diameter_max": 239.565916388
        }
    },
    "is_potentially_hazardous_asteroid": false,
    "close_approach_data": [
        {
            "close_approach_date": "2014-06-21",
            "close_approach_date_full": "2014-Jun-21 12:11",
            "epoch_date_close_approach": 1403352660000,
            "relative_velocity": {
                "kilometers_per_second": "5.4447317862",
                "kilometers_per_hour": "19601.0344303087",
                "miles_per_hour": "12179.3205325438"
            },
            "miss_distance": {
                "astronomical": "0.0992599364",
                "lunar": "38.6121152596",
                "kilometers": "14849075.061775468",
                "miles": "9226787.3915707384"
            },
            "orbiting_body": "Earth"
        }
    ],
    "orbital_data": {
        "orbit_id": "3",
        "orbit_determination_date": "2017-04-06 08:39:46",
        "first_observation_date": "2014-06-24",
        "last_observation_date": "2014-06-25",
        "data_arc_in_days": 1,
        "observations_used": 6,
        "orbit_uncertainty": "9",
        "minimum_orbit_intersection": ".0899645",
        "jupiter_tisserand_invariant": "4.139",
        "epoch_osculation": "2456833.5",
        "eccentricity": ".347028400644447",
        "semi_major_axis": "1.690916720315222",
        "inclination": "6.57420818726304",
        "ascending_node_longitude": "85.42583285812235",
        "orbital_period": "803.1224290761196",
        "perihelion_distance": "1.104120595241277",
        "perihelion_argument": "192.0232578349678",
        "aphelion_distance": "2.277712845389168",
        "perihelion_time": "2456835.403043102111",
        "mean_anomaly": "359.1469600499789",
        "mean_motion": ".4482504621544809",
        "equinox": "J2000",
        "orbit_class": {
            "orbit_class_type": "AMO",
            "orbit_class_description": "Near-Earth asteroid orbits similar to that of 1221 Amor",
            "orbit_class_range": "1.017 AU < q (perihelion) < 1.3 AU"
        }
    },
    "is_sentry_object": false
}